*******************************************************************************
Ephemeris / WWW_USER Mon Mar 24 06:47:21 2025 Pasadena, USA      / Horizons    
*******************************************************************************
Target body name: 768325 (2015 BP519)             {source: JPL#13}
Center body name: Earth (399)                     {source: DE441}
Center-site name: Gemini South Obs., Cerro Pachon
*******************************************************************************
Start time      : A.D. 2018-Sep-11 22:41:00.0000 UT      
Stop  time      : A.D. 2018-Sep-12 10:36:00.0000 UT      
Step-size       : 1 minutes
*******************************************************************************
Target pole/equ : undefined
Target radii    : undefined                                                    
Center geodetic : 289.2634, -30.2406227, 2.71233  {E-lon(deg),Lat(deg),Alt(km)}
Center cylindric: 289.2634,5517.21435,-3194.81213 {E-lon(deg),Dxy(km),Dz(km)}
Center pole/equ : ITRF93                          {East-longitude positive}
Center radii    : 6378.137, 6378.137, 6356.752 km {Equator_a, b, pole_c}       
Target primary  : Sun
Vis. interferer : MOON (R_eq= 1737.400) km        {source: DE441}
Rel. light bend : Sun                             {source: DE441}
Rel. lght bnd GM: 1.3271E+11 km^3/s^2                                          
Small-body perts: Yes                             {source: SB441-N16}
Atmos refraction: NO (AIRLESS)
RA format       : HMS
Time format     : CAL 
Calendar mode   : Mixed Julian/Gregorian
RTS-only print  : NO       
EOP file        : eop.250321.p250617                                           
EOP coverage    : DATA-BASED 1962-JAN-20 TO 2025-MAR-21. PREDICTS-> 2025-JUN-16
Units conversion: 1 au= 149597870.700 km, c= 299792.458 km/s, 1 day= 86400.0 s 
Table cut-offs 1: Elevation (-90.0deg=NO ),Airmass (>38.000=NO), Daylight (YES)
Table cut-offs 2: Solar elongation (  0.0,180.0=NO ),Local Hour Angle( 0.0=NO )
Table cut-offs 3: RA/DEC angular rate (     0.0=NO )                           
*******************************************************************************
Initial IAU76/J2000 heliocentric ecliptic osculating elements (au, days, deg.):
  EPOCH=  2459486.5 ! 2021-Sep-29.00 (TDB)         Residual RMS= .071772       
   EC= .9216453194433936   QR= 35.32438628437644   TP= 2473006.6899544764      
   OM= 135.0347983875217   W=  347.957608556413    IN= 54.13315864151695       
  Equivalent ICRF heliocentric cartesian coordinates (au, au/d):
   X= 1.447262462803667E+01  Y= 4.058013389773870E+01  Z=-2.635496110070412E+01
  VX=-2.666905795807619E-03 VY= 1.989051018714909E-05 VZ= 1.987184001515517E-03
Asteroid physical parameters (km, seconds, rotational period in hours):        
   GM= n.a.                RAD= n.a.               ROTPER= n.a.                
   H= 4.34                 G= .150                 B-V= n.a.                   
                           ALBEDO= n.a.            STYP= n.a.                  
*******************************************************************************
 Date__(UT)__HR:MN     R.A._________(ICRF)_________DEC
******************************************************
$$SOE
 2018-Sep-12 04:50     04 32 02.428917 -32 57 47.81172
 2018-Sep-12 04:51     04 32 02.428782 -32 57 47.84736
 2018-Sep-12 04:52     04 32 02.428645 -32 57 47.88300
 2018-Sep-12 04:53     04 32 02.428509 -32 57 47.91864
 2018-Sep-12 04:54     04 32 02.428372 -32 57 47.95428
 2018-Sep-12 04:55     04 32 02.428236 -32 57 47.98992
 2018-Sep-12 04:56     04 32 02.428098 -32 57 48.02556
 2018-Sep-12 04:57     04 32 02.427961 -32 57 48.06120
 2018-Sep-12 04:58     04 32 02.427823 -32 57 48.09684
 2018-Sep-12 04:59     04 32 02.427685 -32 57 48.13248
 2018-Sep-12 05:00     04 32 02.427547 -32 57 48.16811
 2018-Sep-12 05:01     04 32 02.427409 -32 57 48.20375
 2018-Sep-12 05:02     04 32 02.427270 -32 57 48.23939
 2018-Sep-12 05:03     04 32 02.427131 -32 57 48.27502
 2018-Sep-12 05:04     04 32 02.426992 -32 57 48.31066
 2018-Sep-12 05:05     04 32 02.426853 -32 57 48.34629
 2018-Sep-12 05:06     04 32 02.426713 -32 57 48.38193
 2018-Sep-12 05:07     04 32 02.426573 -32 57 48.41756
 2018-Sep-12 05:08     04 32 02.426433 -32 57 48.45319
 2018-Sep-12 05:09     04 32 02.426292 -32 57 48.48883
 2018-Sep-12 05:10     04 32 02.426152 -32 57 48.52446
 2018-Sep-12 05:11     04 32 02.426011 -32 57 48.56009
 2018-Sep-12 05:12     04 32 02.425870 -32 57 48.59572
 2018-Sep-12 05:13     04 32 02.425728 -32 57 48.63135
 2018-Sep-12 05:14     04 32 02.425586 -32 57 48.66698
 2018-Sep-12 05:15     04 32 02.425444 -32 57 48.70261
 2018-Sep-12 05:16     04 32 02.425302 -32 57 48.73824
 2018-Sep-12 05:17     04 32 02.425160 -32 57 48.77387
 2018-Sep-12 05:18     04 32 02.425017 -32 57 48.80950
 2018-Sep-12 05:19     04 32 02.424874 -32 57 48.84512
 2018-Sep-12 05:20     04 32 02.424731 -32 57 48.88075
 2018-Sep-12 05:21     04 32 02.424587 -32 57 48.91638
 2018-Sep-12 05:22     04 32 02.424444 -32 57 48.95200
 2018-Sep-12 05:23     04 32 02.424300 -32 57 48.98763
 2018-Sep-12 05:24     04 32 02.424156 -32 57 49.02325
 2018-Sep-12 05:25     04 32 02.424011 -32 57 49.05887
 2018-Sep-12 05:26     04 32 02.423867 -32 57 49.09450
 2018-Sep-12 05:27     04 32 02.423722 -32 57 49.13012
 2018-Sep-12 05:28     04 32 02.423576 -32 57 49.16574
 2018-Sep-12 05:29     04 32 02.423431 -32 57 49.20136
 2018-Sep-12 05:30     04 32 02.423285 -32 57 49.23698
 2018-Sep-12 05:31     04 32 02.423139 -32 57 49.27260
 2018-Sep-12 05:32     04 32 02.422993 -32 57 49.30822
 2018-Sep-12 05:33     04 32 02.422847 -32 57 49.34384
 2018-Sep-12 05:34     04 32 02.422700 -32 57 49.37946
 2018-Sep-12 05:35     04 32 02.422553 -32 57 49.41508
 2018-Sep-12 05:36     04 32 02.422406 -32 57 49.45069
 2018-Sep-12 05:37     04 32 02.422259 -32 57 49.48631
 2018-Sep-12 05:38     04 32 02.422111 -32 57 49.52192
 2018-Sep-12 05:39     04 32 02.421963 -32 57 49.55754
 2018-Sep-12 05:40     04 32 02.421815 -32 57 49.59315
 2018-Sep-12 05:41     04 32 02.421667 -32 57 49.62876
 2018-Sep-12 05:42     04 32 02.421518 -32 57 49.66438
 2018-Sep-12 05:43     04 32 02.421370 -32 57 49.69999
 2018-Sep-12 05:44     04 32 02.421221 -32 57 49.73560
 2018-Sep-12 05:45     04 32 02.421071 -32 57 49.77121
 2018-Sep-12 05:46     04 32 02.420922 -32 57 49.80682
 2018-Sep-12 05:47     04 32 02.420772 -32 57 49.84243
 2018-Sep-12 05:48     04 32 02.420622 -32 57 49.87803
 2018-Sep-12 05:49     04 32 02.420472 -32 57 49.91364
 2018-Sep-12 05:50     04 32 02.420321 -32 57 49.94925
 2018-Sep-12 05:51     04 32 02.420171 -32 57 49.98485
 2018-Sep-12 05:52     04 32 02.420020 -32 57 50.02046
 2018-Sep-12 05:53     04 32 02.419868 -32 57 50.05606
 2018-Sep-12 05:54     04 32 02.419717 -32 57 50.09167
 2018-Sep-12 05:55     04 32 02.419565 -32 57 50.12727
 2018-Sep-12 05:56     04 32 02.419414 -32 57 50.16287
 2018-Sep-12 05:57     04 32 02.419261 -32 57 50.19847
 2018-Sep-12 05:58     04 32 02.419109 -32 57 50.23407
 2018-Sep-12 05:59     04 32 02.418957 -32 57 50.26967
 2018-Sep-12 06:00     04 32 02.418804 -32 57 50.30527
 2018-Sep-12 06:01     04 32 02.418651 -32 57 50.34087
 2018-Sep-12 06:02     04 32 02.418497 -32 57 50.37646
 2018-Sep-12 06:03     04 32 02.418344 -32 57 50.41206
 2018-Sep-12 06:04     04 32 02.418190 -32 57 50.44766
 2018-Sep-12 06:05     04 32 02.418036 -32 57 50.48325
 2018-Sep-12 06:06     04 32 02.417882 -32 57 50.51884
 2018-Sep-12 06:07     04 32 02.417728 -32 57 50.55444
 2018-Sep-12 06:08     04 32 02.417573 -32 57 50.59003
 2018-Sep-12 06:09     04 32 02.417418 -32 57 50.62562
 2018-Sep-12 06:10     04 32 02.417263 -32 57 50.66121
 2018-Sep-12 06:11     04 32 02.417108 -32 57 50.69680
 2018-Sep-12 06:12     04 32 02.416952 -32 57 50.73239
 2018-Sep-12 06:13     04 32 02.416797 -32 57 50.76797
 2018-Sep-12 06:14     04 32 02.416641 -32 57 50.80356
 2018-Sep-12 06:15     04 32 02.416484 -32 57 50.83915
 2018-Sep-12 06:16     04 32 02.416328 -32 57 50.87473
 2018-Sep-12 06:17     04 32 02.416171 -32 57 50.91031
 2018-Sep-12 06:18     04 32 02.416014 -32 57 50.94590
 2018-Sep-12 06:19     04 32 02.415857 -32 57 50.98148
 2018-Sep-12 06:20     04 32 02.415700 -32 57 51.01706
 2018-Sep-12 06:21     04 32 02.415542 -32 57 51.05264
 2018-Sep-12 06:22     04 32 02.415385 -32 57 51.08822
 2018-Sep-12 06:23     04 32 02.415227 -32 57 51.12380
 2018-Sep-12 06:24     04 32 02.415069 -32 57 51.15937
 2018-Sep-12 06:25     04 32 02.414910 -32 57 51.19495
 2018-Sep-12 06:26     04 32 02.414752 -32 57 51.23053
 2018-Sep-12 06:27     04 32 02.414593 -32 57 51.26610
 2018-Sep-12 06:28     04 32 02.414434 -32 57 51.30167
 2018-Sep-12 06:29     04 32 02.414274 -32 57 51.33725
 2018-Sep-12 06:30     04 32 02.414115 -32 57 51.37282
 2018-Sep-12 06:31     04 32 02.413955 -32 57 51.40839
 2018-Sep-12 06:32     04 32 02.413795 -32 57 51.44396
 2018-Sep-12 06:33     04 32 02.413635 -32 57 51.47953
 2018-Sep-12 06:34     04 32 02.413475 -32 57 51.51509
 2018-Sep-12 06:35     04 32 02.413314 -32 57 51.55066
 2018-Sep-12 06:36     04 32 02.413154 -32 57 51.58623
 2018-Sep-12 06:37     04 32 02.412993 -32 57 51.62179
 2018-Sep-12 06:38     04 32 02.412831 -32 57 51.65735
 2018-Sep-12 06:39     04 32 02.412670 -32 57 51.69292
 2018-Sep-12 06:40     04 32 02.412508 -32 57 51.72848
 2018-Sep-12 06:41     04 32 02.412347 -32 57 51.76404
 2018-Sep-12 06:42     04 32 02.412185 -32 57 51.79960
 2018-Sep-12 06:43     04 32 02.412022 -32 57 51.83515
 2018-Sep-12 06:44     04 32 02.411860 -32 57 51.87071
 2018-Sep-12 06:45     04 32 02.411697 -32 57 51.90627
 2018-Sep-12 06:46     04 32 02.411535 -32 57 51.94182
 2018-Sep-12 06:47     04 32 02.411372 -32 57 51.97738
 2018-Sep-12 06:48     04 32 02.411208 -32 57 52.01293
 2018-Sep-12 06:49     04 32 02.411045 -32 57 52.04848
 2018-Sep-12 06:50     04 32 02.410881 -32 57 52.08403
 2018-Sep-12 06:51     04 32 02.410717 -32 57 52.11958
 2018-Sep-12 06:52     04 32 02.410553 -32 57 52.15513
